{"type": "FeatureCollection", "features": [ {"type": "Feature", "properties": {"norad_id": 35824, "name": "COSMOS 2251 DEB", "group": "cosmos-2251-debris", "lat": 65.5396772113143, "lon": -155.32351380085626, "alt_km": 792.5854205441656, "timestamp": "2025-12-03T17:47:51.115148+00:00", "meta": {"OBJECT_NAME": "COSMOS 2251 DEB", "OBJECT_ID": "1993-036ASW", "EPOCH": "2025-12-03T12:05:08.596608", "MEAN_MOTION": 13.88357908, "ECCENTRICITY": 0.0250145, "INCLINATION": 73.8459, "RA_OF_ASC_NODE": 64.6657, "ARG_OF_PERICENTER": 152.4307, "MEAN_ANOMALY": 209.0351, "EPHEMERIS_TYPE": 0, "CLASSIFICATION_TYPE": "U", "NORAD_CAT_ID": 35824, "ELEMENT_SET_NO": 999, "REV_AT_EPOCH": 84099, "BSTAR": 0.0020735, "MEAN_MOTION_DOT": 3.165e-05, "MEAN_MOTION_DDOT": 0}, "tle": {"line1": "1 35824U 93036ASW 25337.50357172  .00003165  00000+0  20735-2 0  9996", "line2": "2 35824  73.8459  64.6657 0250145 152.4307 209.0351 13.88357908840995"}}, "geometry": {"type": "Point", "coordinates": [-155.32351380085626, 65.5396772113143]}}, {"type": "Feature", "properties": {"norad_id": 35825, "name": "COSMOS 2251 DEB", "group": "cosmos-2251-debris", "lat": -23.996981916685495, "lon": 150.15629398330648, "alt_km": 946.848330870459, "timestamp": "2025-12-03T17:47:51.115159+00:00", "meta": {"OBJECT_NAME": "COSMOS 2251 DEB", "OBJECT_ID": "1993-036ASX", "EPOCH": "2025-11-18T20:38:01.180896", "MEAN_MOTION": 13.70825357, "ECCENTRICITY": 0.03535711, "INCLINATION": 74.1138, "RA_OF_ASC_NODE": 181.8907, "ARG_OF_PERICENTER": 283.1782, "MEAN_ANOMALY": 73.0118, "EPHEMERIS_TYPE": 0, "CLASSIFICATION_TYPE": "U", "NORAD_CAT_ID": 35825, "ELEMENT_SET_NO": 999, "REV_AT_EPOCH": 82181, "BSTAR": 0.0013809564, "MEAN_MOTION_DOT": 1.891e-05, "MEAN_MOTION_DDOT": 0}, "tle": {"line1": "1 35825U 93036ASX 25322.85973589  .00001891  00000+0  13810-2 0  9995", "line2": "2 35825  74.1138 181.8907 0353571 283.1782  73.0118 13.70825357821819"}}, "geometry": {"type": "Point", "coordinates": [150.15629398330648, -23.996981916685495]}}, {"type": "Feature", "properties": {"norad_id": 35829, "name": "COSMOS 2251 DEB", "group": "cosmos-2251-debris", "lat": 48.148906881330234, "lon": 135.089380298367, "alt_km": 641.1757245204935, "timestamp": "2025-12-03T17:47:51.115171+00:00", "meta": {"OBJECT_NAME": "COSMOS 2251 DEB", "OBJECT_ID": "1993-036ATB", "EPOCH": "2025-11-30T16:21:21.662208", "MEAN_MOTION": 14.75731719, "ECCENTRICITY": 0.00079875, "INCLINATION": 74.0228, "RA_OF_ASC_NODE": 122.4242, "ARG_OF_PERICENTER": 184.1441, "MEAN_ANOMALY": 175.9668, "EPHEMERIS_TYPE": 0, "CLASSIFICATION_TYPE": "U", "NORAD_CAT_ID": 35829, "ELEMENT_SET_NO": 999, "REV_AT_EPOCH": 87597, "BSTAR": 0.0025962161, "MEAN_MOTION_DOT": 0.00017791, "MEAN_MOTION_DDOT": 0}, "tle": {"line1": "1 35829U 93036ATB 25334.68150072  .00017791  00000+0  25962-2 0  9994", "line2": "2 35829  74.0228 122.4242 0007987 184.1441 175.9668 14.75731719875976"}}, "geometry": {"type": "Point", "coordinates": [135.089380298367, 48.148906881330234]}}, {"type": "Feature", "properties": {"norad_id": 35830, "name": "COSMOS 2251 DEB", "group": "cosmos-2251-debris", "lat": -56.72285947680772, "lon": 128.99007090340228, "alt_km": 732.2530709577968, "timestamp": "2025-12-03T17:47:51.115182+00:00", "meta": {"OBJECT_NAME": "COSMOS 2251 DEB", "OBJECT_ID": "1993-036ATC", "EPOCH": "2025-12-03T04:51:39.093120", "MEAN_MOTION": 14.23892585, "ECCENTRICITY": 0.0123282, "INCLINATION": 73.8624, "RA_OF_ASC_NODE": 283.793, "ARG_OF_PERICENTER": 253.8519, "MEAN_ANOMALY": 104.9029, "EPHEMERIS_TYPE": 0, "CLASSIFICATION_TYPE": "U", "NORAD_CAT_ID": 35830, "ELEMENT_SET_NO": 999, "REV_AT_EPOCH": 61128, "BSTAR": 0.0012831, "MEAN_MOTION_DOT": 3.154e-05, "MEAN_MOTION_DDOT": 0}, "tle": {"line1": "1 35830U 93036ATC 25337.20253580  .00003154  00000+0  12831-2 0  9994", "line2": "2 35830  73.8624 283.7930 0123282 253.8519 104.9029 14.23892585611284"}}, "geometry": {"type": "Point", "coordinates": [128.99007090340228, -56.72285947680772]}}, {"type": "Feature", "properties": {"norad_id": 35834, "name": "COSMOS 2251 DEB", "group": "cosmos-2251-debris", "lat": 67.07242515977156, "lon": 3.510313412622527, "alt_km": 790.5358467631258, "timestamp": "2025-12-03T17:47:51.115194+00:00", "meta": {"OBJECT_NAME": "COSMOS 2251 DEB", "OBJECT_ID": "1993-036ATG", "EPOCH": "2025-12-03T09:39:35.307072", "MEAN_MOTION": 14.12966423, "ECCENTRICITY": 0.0109075, "INCLINATION": 73.9307, "RA_OF_ASC_NODE": 321.1574, "ARG_OF_PERICENTER": 123.5318, "MEAN_ANOMALY": 26.7998, "EPHEMERIS_TYPE": 0, "CLASSIFICATION_TYPE": "U", "NORAD_CAT_ID": 35834, "ELEMENT_SET_NO": 999, "REV_AT_EPOCH": 66131, "BSTAR": 0.00019432, "MEAN_MOTION_DOT": 3.59e-06, "MEAN_MOTION_DDOT": 0}, "tle": {"line1": "1 35834U 93036ATG 25337.40249198  .00000359  00000+0  19432-3 0  9999", "line2": "2 35834  73.9307 321.1574 0109075 123.5318  26.7998 14.12966423661318"}}, "geometry": {"type": "Point", "coordinates": [3.510313412622527, 67.07242515977156]}}, {"type": "Feature", "properties": {"norad_id": 35835, "name": "COSMOS 2251 DEB", "group": "cosmos-2251-debris", "lat": -73.05653358270455, "lon": 173.27638304710177, "alt_km": 1163.2462440993331, "timestamp": "2025-12-03T17:47:51.115205+00:00", "meta": {"OBJECT_NAME": "COSMOS 2251 DEB", "OBJECT_ID": "1993-036ATH", "EPOCH": "2025-11-23T15:11:23.439552", "MEAN_MOTION": 13.82767918, "ECCENTRICITY": 0.02888493, "INCLINATION": 74.0623, "RA_OF_ASC_NODE": 300.5555, "ARG_OF_PERICENTER": 86.7647, "MEAN_ANOMALY": 276.6477, "EPHEMERIS_TYPE": 0, "CLASSIFICATION_TYPE": "U", "NORAD_CAT_ID": 35835, "ELEMENT_SET_NO": 999, "REV_AT_EPOCH": 61435, "BSTAR": 0.00097699609, "MEAN_MOTION_DOT": 1.444e-05, "MEAN_MOTION_DDOT": 0}, "tle": {"line1": "1 35835U 93036ATH 25327.63291018  .00001444  00000+0  97700-3 0  9992", "line2": "2 35835  74.0623 300.5555 0288849  86.7647 276.6477 13.82767918614358"}}, "geometry": {"type": "Point", "coordinates": [173.27638304710177, -73.05653358270455]}}, {"type": "Feature", "properties": {"norad_id": 35836, "name": "COSMOS 2251 DEB", "group": "cosmos-2251-debris", "lat": 22.877042564587423, "lon": 3.4677676665555173, "alt_km": 659.4586574506684, "timestamp": "2025-12-03T17:47:51.115217+00:00", "meta": {"OBJECT_NAME": "COSMOS 2251 DEB", "OBJECT_ID": "1993-036ATJ", "EPOCH": "2025-12-03T07:17:31.835616", "MEAN_MOTION": 14.70639126, "ECCENTRICITY": 0.0025001, "INCLINATION": 74.0317, "RA_OF_ASC_NODE": 191.2565, "ARG_OF_PERICENTER": 251.0331, "MEAN_ANOMALY": 108.8131, "EPHEMERIS_TYPE": 0, "CLASSIFICATION_TYPE": "U", "NORAD_CAT_ID": 35836, "ELEMENT_SET_NO": 999, "REV_AT_EPOCH": 63381, "BSTAR": 0.0020272, "MEAN_MOTION_DOT": 0.00012386, "MEAN_MOTION_DDOT": 0}, "tle": {"line1": "1 35836U 93036ATJ 25337.30384069  .00012386  00000+0  20272-2 0  9993", "line2": "2 35836  74.0317 191.2565 0025001 251.0331 108.8131 14.70639126633813"}}, "geometry": {"type": "Point", "coordinates": [3.4677676665555173, 22.877042564587423]}}, {"type": "Feature", "properties": {"norad_id": 35837, "name": "COSMOS 2251 DEB", "group": "cosmos-2251-debris", "lat": -41.00724367382099, "lon": -152.12155354938102, "alt_km": 1338.8627184924453, "timestamp": "2025-12-03T17:47:51.115229+00:00", "meta": {"OBJECT_NAME": "COSMOS 2251 DEB", "OBJECT_ID": "1993-036ATK", "EPOCH": "2025-12-01T23:51:57.289248", "MEAN_MOTION": 13.6337538, "ECCENTRICITY": 0.04221684, "INCLINATION": 73.722, "RA_OF_ASC_NODE": 225.5014, "ARG_OF_PERICENTER": 147.9905, "MEAN_ANOMALY": 236.1342, "EPHEMERIS_TYPE": 0, "CLASSIFICATION_TYPE": "U", "NORAD_CAT_ID": 35837, "ELEMENT_SET_NO": 999, "REV_AT_EPOCH": 57830, "BSTAR": 0.0015598764, "MEAN_MOTION_DOT": 2.227e-05, "MEAN_MOTION_DDOT": 0}, "tle": {"line1": "1 35837U 93036ATK 25335.99441307  .00002227  00000+0  15599-2 0  9995", "line2": "2 35837  73.7220 225.5014 0422168 147.9905 236.1342 13.63375380578309"}}, "geometry": {"type": "Point", "coordinates": [-152.12155354938102, -41.00724367382099]}}, {"type": "Feature", "properties": {"norad_id": 35839, "name": "COSMOS 2251 DEB", "group": "cosmos-2251-debris", "lat": 72.31022677227843, "lon": 100.52392785922332, "alt_km": 423.9568771242202, "timestamp": "2025-12-03T17:47:51.115240+00:00", "meta": {"OBJECT_NAME": "COSMOS 2251 DEB", "OBJECT_ID": "1993-036ATM", "EPOCH": "2025-12-02T18:04:00.304320", "MEAN_MOTION": 15.45026888, "ECCENTRICITY": 0.00040607, "INCLINATION": 74.215, "RA_OF_ASC_NODE": 345.1466, "ARG_OF_PERICENTER": 349.3631, "MEAN_ANOMALY": 10.7494, "EPHEMERIS_TYPE": 0, "CLASSIFICATION_TYPE": "U", "NORAD_CAT_ID": 35839, "ELEMENT_SET_NO": 999, "REV_AT_EPOCH": 88413, "BSTAR": 0.0039662288, "MEAN_MOTION_DOT": 0.00191992, "MEAN_MOTION_DDOT": 0}, "tle": {"line1": "1 35839U 93036ATM 25336.75278130  .00191992  00000+0  39662-2 0  9999", "line2": "2 35839  74.2150 345.1466 0004060 349.3631  10.7494 15.45026888884133"}}, "geometry": {"type": "Point", "coordinates": [100.52392785922332, 72.31022677227843]}}, {"type": "Feature", "properties": {"norad_id": 35840, "name": "COSMOS 2251 DEB", "group": "cosmos-2251-debris", "lat": -51.8967029020405, "lon": 16.42085890888784, "alt_km": 848.0568972968176, "timestamp": "2025-12-03T17:47:51.115251+00:00", "meta": {"OBJECT_NAME": "COSMOS 2251 DEB", "OBJECT_ID": "1993-036ATN", "EPOCH": "2025-12-03T06:41:48.528096", "MEAN_MOTION": 14.37668767, "ECCENTRICITY": 0.0116177, "INCLINATION": 73.9299, "RA_OF_ASC_NODE": 175.711, "ARG_OF_PERICENTER": 80.5155, "MEAN_ANOMALY": 280.9106, "EPHEMERIS_TYPE": 0, "CLASSIFICATION_TYPE": "U", "NORAD_CAT_ID": 35840, "ELEMENT_SET_NO": 999, "REV_AT_EPOCH": 85155, "BSTAR": 0.0020521, "MEAN_MOTION_DOT": 6.645e-05, "MEAN_MOTION_DDOT": 0}, "tle": {"line1": "1 35840U 93036ATN 25337.27903389  .00006645  00000+0  20521-2 0  9994", "line2": "2 35840  73.9299 175.7110 0116177  80.5155 280.9106 14.37668767851555"}}, "geometry": {"type": "Point", "coordinates": [16.42085890888784, -51.8967029020405]}}]}